id_address,fulladdress,addresstype_nameaddresstype,flooraddress,descriptionaddress
0,Санкт-Петербург Новая Улица 4,Standart,1,
1,Санкт-Петербург Буденного Улица 19,Standart,1,
2,Санкт-Петербург Октябрьская Улица 3,Standart,1,
3,Санкт-Петербург Артезианский Переулок 20,Standart,1,
4,Санкт-Петербург Западная Улица 13,Standart,1,
5,Санкт-Петербург Лазурная Улица 8,Standart,1,
6,Санкт-Петербург Садовый Переулок 33,Standart,1,
7,Санкт-Петербург Кольцевая Улица 25,Standart,1,
8,Санкт-Петербург Таежный Переулок 20,Standart,1,
9,Санкт-Петербург Кирова Улица 13,Standart,1,
10,Санкт-Петербург Московская Улица 16,Standart,1,
11,Санкт-Петербург Южная Улица 35,Standart,1,
12,Санкт-Петербург Кленовый Переулок 17,Standart,1,
13,Санкт-Петербург Фрунзе Улица 8,Standart,1,
14,Санкт-Петербург Тополиная Улица 16,Standart,1,
15,Санкт-Петербург Липовая Улица 30,Standart,1,
16,Санкт-Петербург Матросова Улица 31,Standart,1,
17,Санкт-Петербург Нагорная Улица 27,Standart,1,
18,Санкт-Петербург Советский Переулок 18,Standart,1,
19,Санкт-Петербург Приозерная Улица 18,Standart,1,
20,Санкт-Петербург Овражный Переулок 33,Standart,1,
21,Санкт-Петербург Набережная Улица 3,Standart,1,
22,Санкт-Петербург Новостроек 2-й Переулок 35,Standart,1,
23,Санкт-Петербург Нагорный Переулок 21,Standart,1,
24,Санкт-Петербург Араса Улица 5,Standart,1,
25,Санкт-Петербург Молодежный Переулок 21,Standart,1,
26,Санкт-Петербург Мелиоратор Садовое неком-е товарищество 13,Standart,1,
27,Санкт-Петербург Гоголя Улица 6,Standart,1,
28,Санкт-Петербург Торфяная Улица 27,Standart,1,
29,Санкт-Петербург Молодежная Улица 2,Standart,1,
30,Санкт-Петербург Кировский Переулок 28,Standart,1,
31,Санкт-Петербург Шоссейная Улица 7,Standart,1,
32,Санкт-Петербург Лесной Переулок 13,Standart,1,
33,Санкт-Петербург Тургенева Улица 7,Standart,1,
34,Санкт-Петербург Зеленый Переулок 23,Standart,1,
35,Санкт-Петербург Центральная Улица 28,Standart,1,
36,Санкт-Петербург Садовая Улица 20,Standart,1,
37,Санкт-Петербург Набережная Улица 27,Standart,1,
38,Санкт-Петербург Набережная Улица 26,Standart,1,
39,Санкт-Петербург Почтовый Переулок 21,Standart,1,
40,Санкт-Петербург Центральная Улица 17,Standart,1,
41,Санкт-Петербург Тракторная Улица 33,Standart,1,
42,Санкт-Петербург А.Клеймюка Улица 30,Standart,1,
43,Санкт-Петербург Зейская Улица 1,Standart,1,
44,Санкт-Петербург Красильникова Переулок 32,Standart,1,
45,Санкт-Петербург Дальневосточная Улица 30,Standart,1,
46,Санкт-Петербург Уральская Улица 26,Standart,1,
47,Санкт-Петербург Историческая Улица 12,Standart,1,
48,Санкт-Петербург Клубная Улица 29,Standart,1,
49,Санкт-Петербург Рябиновая 3-я Улица 31,Standart,1,
50,Санкт-Петербург Заводская Улица 12,Standart,1,
51,Санкт-Петербург Железнодорожная Улица 23,Standart,1,
52,Санкт-Петербург Жемчужная Улица 7,Standart,1,
53,Санкт-Петербург Щорса Переулок 28,Standart,1,
54,Санкт-Петербург Железнодорожная Улица 4,Standart,1,
55,Санкт-Петербург Колотовка Улица 8,Standart,1,
56,Санкт-Петербург Гагарина Улица 25,Standart,1,
57,Санкт-Петербург Центральный Переулок 23,Standart,1,
58,Санкт-Петербург Пролетарская Улица 4,Standart,1,
59,Санкт-Петербург Кобяйская Улица 6,Standart,1,
60,Санкт-Петербург Набережный Проезд 3,Standart,1,
61,Санкт-Петербург Мира Улица 23,Standart,1,
62,Санкт-Петербург Комсомольская Улица 16,Standart,1,
63,Санкт-Петербург Луговой Переулок 5,Standart,1,
64,Санкт-Петербург Благоварская Улица 19,Standart,1,
65,Санкт-Петербург Деревенский Переулок 26,Standart,1,
66,Санкт-Петербург Родниковая Улица 22,Standart,1,
67,Санкт-Петербург Кузнечная Улица 34,Standart,1,
68,Санкт-Петербург Даниила Чёрного Улица 31,Standart,1,
69,Санкт-Петербург Озерная Улица 5,Standart,1,
70,Санкт-Петербург Толстого Улица 17,Standart,1,
71,Санкт-Петербург Короткий Переулок 2,Standart,1,
72,Санкт-Петербург Веселый Переулок 21,Standart,1,
73,Санкт-Петербург Ольховая Улица 11,Standart,1,
74,Санкт-Петербург Омская Улица 9,Standart,1,
75,Санкт-Петербург Котовского Переулок 17,Standart,1,
76,Санкт-Петербург Клубная Улица 6,Standart,1,
77,Санкт-Петербург Набережная Улица 7,Standart,1,
78,Санкт-Петербург Степная Улица 6,Standart,1,
79,Санкт-Петербург Чернолуцкого Улица 14,Standart,1,
80,Санкт-Петербург Песочный Просек 1,Standart,1,
81,Санкт-Петербург Школьная Улица 30,Standart,1,
82,Санкт-Петербург Луговая Улица 3,Standart,1,
83,Санкт-Петербург Солнечная Улица 33,Standart,1,
84,Санкт-Петербург Школьная Улица 8,Standart,1,
85,Санкт-Петербург Строителей Улица 26,Standart,1,
86,Санкт-Петербург Глазова Улица 22,Standart,1,
87,Санкт-Петербург Советский Переулок 12,Standart,1,
88,Санкт-Петербург Дружбы Улица 15,Standart,1,
89,Санкт-Петербург Нагорная Улица 22,Standart,1,
90,Санкт-Петербург Заводской Переулок 24,Standart,1,
91,Санкт-Петербург Заречная Улица 2,Standart,1,
92,Санкт-Петербург Чусовая Улица 18,Standart,1,
93,Санкт-Петербург Трактовая Улица 1,Standart,1,
94,Санкт-Петербург Дачная Улица 10,Standart,1,
95,Санкт-Петербург Верхняя Улица 26,Standart,1,
96,Санкт-Петербург Интернациональная Улица 10,Standart,1,
97,Санкт-Петербург Садовый Переулок 21,Standart,1,
98,Санкт-Петербург Раздоровская Улица 33,Standart,1,
99,Санкт-Петербург Железнодорожная Улица 1,Standart,1,
100,Санкт-Петербург Новая Улица 26,Standart,1,
101,Санкт-Петербург Подстанция Улица 3,Standart,1,
102,Санкт-Петербург Кооперативная Улица 14,Standart,1,
103,Санкт-Петербург Яркая Улица 11,Standart,1,
104,Санкт-Петербург Строительная Улица 1,Standart,1,
105,Санкт-Петербург Ленинский Переулок 12,Standart,1,
106,Санкт-Петербург Первомайская Улица 29,Standart,1,
107,Санкт-Петербург Школьная Улица 3,Standart,1,
108,Санкт-Петербург Строительная Улица 1,Standart,1,
109,Санкт-Петербург Братская Улица 6,Standart,1,
110,Санкт-Петербург Советская Улица 24,Standart,1,
111,Санкт-Петербург Гаражный Переулок 16,Standart,1,
112,Санкт-Петербург А.Ханукаева Улица 35,Standart,1,
113,Санкт-Петербург Светлая Улица 34,Standart,1,
114,Санкт-Петербург Комсомольская Улица 24,Standart,1,
115,Санкт-Петербург Обзорная Улица 26,Standart,1,
116,Санкт-Петербург Мезенцевская Улица 29,Standart,1,
117,Санкт-Петербург Школьный Переулок 25,Standart,1,
118,Санкт-Петербург Новая Улица 23,Standart,1,
119,Санкт-Петербург Советская Улица 33,Standart,1,
120,Санкт-Петербург Семетская Улица 10,Standart,1,
121,Санкт-Петербург Нефтяников Улица 17,Standart,1,
122,Санкт-Петербург Рассказова Улица 12,Standart,1,
123,Санкт-Петербург Уральская Улица 8,Standart,1,
124,Санкт-Петербург Водрайон Улица 23,Standart,1,
125,Санкт-Петербург Восточный Микрорайон 10,Standart,1,
126,Санкт-Петербург Свободы Улица 17,Standart,1,
127,Санкт-Петербург Понаморева Улица 27,Standart,1,
128,Санкт-Петербург Комсомольская Улица 4,Standart,1,
129,Санкт-Петербург Байчорова Улица 10,Standart,1,
130,Санкт-Петербург 6-я Улица 35,Standart,1,
131,Санкт-Петербург Крайняя Улица 18,Standart,1,
132,Санкт-Петербург Лесная Улица 35,Standart,1,
133,Санкт-Петербург Гильчинская Улица 20,Standart,1,
134,Санкт-Петербург ДНП Большое Петровское Дачное неком-е партнерство 31,Standart,1,
135,Санкт-Петербург Партизанская Улица 35,Standart,1,
136,Санкт-Петербург Весенняя Улица 15,Standart,1,
137,Санкт-Петербург Широкая Улица 22,Standart,1,
138,Санкт-Петербург Заречная Улица 26,Standart,1,
139,Санкт-Петербург Парковая Улица 24,Standart,1,
140,Санкт-Петербург Восточная Улица 7,Standart,1,
141,Санкт-Петербург Советская Улица 14,Standart,1,
142,Санкт-Петербург Полянская Улица 21,Standart,1,
143,Санкт-Петербург Набережная Улица 33,Standart,1,
144,Санкт-Петербург Пролетарская Улица 23,Standart,1,
145,Санкт-Петербург Рабочая Улица 6,Standart,1,
146,Санкт-Петербург Лесная Улица 4,Standart,1,
147,Санкт-Петербург Герцена Улица 29,Standart,1,
148,Санкт-Петербург Школьная Улица 5,Standart,1,
149,Санкт-Петербург Кирсаловская Улица 20,Standart,1,
150,Санкт-Петербург Комсомольская Улица 9,Standart,1,
151,Санкт-Петербург Дорожный Переулок 34,Standart,1,
152,Санкт-Петербург Солнечная Улица 12,Standart,1,
153,Санкт-Петербург СНТ Радость Сад 13,Standart,1,
154,Санкт-Петербург Водрайон Улица 10,Standart,1,
155,Санкт-Петербург Майская Улица 9,Standart,1,
156,Санкт-Петербург Гагарина Улица 16,Standart,1,
157,Санкт-Петербург Юности Улица 15,Standart,1,
158,Санкт-Петербург Нагорный Переулок 20,Standart,1,
159,Санкт-Петербург Чернолуцкого Улица 7,Standart,1,
160,Санкт-Петербург Рассветная Улица 1,Standart,1,
161,Санкт-Петербург Школьная Улица 12,Standart,1,
162,Санкт-Петербург Лесная Улица 25,Standart,1,
163,Санкт-Петербург Степана Халтурина Улица 28,Standart,1,
164,Санкт-Петербург Проселочная Улица 22,Standart,1,
165,Санкт-Петербург Рассветная Улица 17,Standart,1,
166,Санкт-Петербург Новая 1 Улица 31,Standart,1,
167,Санкт-Петербург Молодежная Улица 26,Standart,1,
168,Санкт-Петербург Набережная Улица 2,Standart,1,
169,Санкт-Петербург Южная Улица 31,Standart,1,
170,Санкт-Петербург Пермская Улица 23,Standart,1,
171,Санкт-Петербург Почтовый Переулок 23,Standart,1,
172,Санкт-Петербург Елицкая Улица 17,Standart,1,
173,Санкт-Петербург Селляхская Улица 35,Standart,1,
174,Санкт-Петербург Липовая Улица 12,Standart,1,
175,Санкт-Петербург Якупова Улица 29,Standart,1,
176,Санкт-Петербург Крестьянская 1-я Улица 3,Standart,1,
177,Санкт-Петербург Кирпичная Улица 32,Standart,1,
178,Санкт-Петербург Зеленая Улица 10,Standart,1,
179,Санкт-Петербург Садовый Переулок 15,Standart,1,
180,Санкт-Петербург Сиреневая Улица 5,Standart,1,
181,Санкт-Петербург Осенняя Улица 11,Standart,1,
182,Санкт-Петербург Коммунальная Улица 4,Standart,1,
183,Санкт-Петербург Приозерная Улица 17,Standart,1,
184,Санкт-Петербург Красногвардейский Переулок 22,Standart,1,
185,Санкт-Петербург 1-й Переулок 4,Standart,1,
186,Санкт-Петербург Рыбацкий Переулок 4,Standart,1,
187,Санкт-Петербург Центральная Улица 24,Standart,1,
188,Санкт-Петербург Береговая Улица 35,Standart,1,
189,Санкт-Петербург Етима Эмина Улица 33,Standart,1,
190,Санкт-Петербург Полевая Улица 5,Standart,1,
191,Санкт-Петербург Рябиновая Улица 21,Standart,1,
192,Санкт-Петербург Новая Улица 22,Standart,1,
193,Санкт-Петербург Заречная Улица 14,Standart,1,
194,Санкт-Петербург Кафэнская Улица 5,Standart,1,
195,Санкт-Петербург Советская Улица 4,Standart,1,
196,Санкт-Петербург Выселковая Улица 35,Standart,1,
197,Санкт-Петербург Заречная Улица 22,Standart,1,
198,Санкт-Петербург Садовая Улица 15,Standart,1,
199,Санкт-Петербург Лесная Улица 8,Standart,1,
200,Санкт-Петербург Ягодная Улица 33,Standart,1,
201,Санкт-Петербург Новая стройка 10,Standart,1,
202,Санкт-Петербург Дачная Улица 2,Standart,1,
203,Санкт-Петербург Восточный Переулок 34,Standart,1,
204,Санкт-Петербург Молодежная Улица 35,Standart,1,
205,Санкт-Петербург 1-й Переулок 30,Standart,1,
206,Санкт-Петербург Пионерская Улица 1,Standart,1,
207,Санкт-Петербург Комсомольская Улица 19,Standart,1,
208,Санкт-Петербург Водопроводная Улица 23,Standart,1,
209,Санкт-Петербург Нагорная Улица 5,Standart,1,
210,Санкт-Петербург Молодежный Переулок 34,Standart,1,
211,Санкт-Петербург Москва Улица 4,Standart,1,
212,Санкт-Петербург Победы Улица 10,Standart,1,
213,Санкт-Петербург Курганская Улица 14,Standart,1,
214,Санкт-Петербург Трактовая Улица 22,Standart,1,
215,Санкт-Петербург Гранковская 6-я Улица 5,Standart,1,
216,Санкт-Петербург Советская Улица 24,Standart,1,
217,Санкт-Петербург Молодежная Улица 18,Standart,1,
218,Санкт-Петербург Прудная Улица 2,Standart,1,
219,Санкт-Петербург Нефтебаза Улица 9,Standart,1,
220,Санкт-Петербург Вахитова Улица 19,Standart,1,
221,Санкт-Петербург Закаменская Улица 31,Standart,1,
222,Санкт-Петербург Мелиораторов Переулок 19,Standart,1,
223,Санкт-Петербург Заречная Улица 2,Standart,1,
224,Санкт-Петербург Береговая Улица 7,Standart,1,
225,Санкт-Петербург Маяковского Улица 17,Standart,1,
226,Санкт-Петербург Первомайская Улица 19,Standart,1,
227,Санкт-Петербург Ульянова Проезд 31,Standart,1,
228,Санкт-Петербург Зеленый Переулок 19,Standart,1,
229,Санкт-Петербург Набережная Улица 35,Standart,1,
230,Санкт-Петербург Центральная Улица 2,Standart,1,
231,Санкт-Петербург Кооперативный Переулок 16,Standart,1,
232,Санкт-Петербург Набережная Улица 6,Standart,1,
233,Санкт-Петербург Аносова Улица 26,Standart,1,
234,Санкт-Петербург Сосновая Улица 17,Standart,1,
235,Санкт-Петербург Центральный Переулок 2,Standart,1,
236,Санкт-Петербург Яблоневая Улица 2,Standart,1,
237,Санкт-Петербург Набережная Улица 31,Standart,1,
238,Санкт-Петербург Зеленая Улица 22,Standart,1,
239,Санкт-Петербург Лесной Переулок 30,Standart,1,
240,Санкт-Петербург Комендантская Улица 16,Standart,1,
241,Санкт-Петербург Ю.Венгеровского Переулок 29,Standart,1,
242,Санкт-Петербург Садовая Улица 5,Standart,1,
243,Санкт-Петербург Бограда Улица 11,Standart,1,
244,Санкт-Петербург Молодежная Улица 26,Standart,1,
245,Санкт-Петербург Молодежная Улица 13,Standart,1,
246,Санкт-Петербург Российский Переулок 17,Standart,1,
247,Санкт-Петербург Луговая Улица 2,Standart,1,
248,Санкт-Петербург Дачная Улица 32,Standart,1,
249,Санкт-Петербург Полевая Улица 30,Standart,1,
250,Санкт-Петербург Историческая Улица 20,Standart,1,
251,Санкт-Петербург Госпитальный Переулок 17,Standart,1,
252,Санкт-Петербург Набережная Улица 18,Standart,1,
253,Санкт-Петербург Нагорная Улица 26,Standart,1,
254,Санкт-Петербург Сельпо Переулок 11,Standart,1,
255,Санкт-Петербург Николая Филиппова Улица 4,Standart,1,
256,Санкт-Петербург Цветочная Улица 9,Standart,1,
257,Санкт-Петербург Южная Улица 3,Standart,1,
258,Санкт-Петербург Комсомольская Улица 29,Standart,1,
259,Санкт-Петербург Энергетиков Улица 8,Standart,1,
260,Санкт-Петербург Береговая Улица 5,Standart,1,
261,Санкт-Петербург Весенняя Улица 4,Standart,1,
262,Санкт-Петербург Южная Улица 19,Standart,1,
263,Санкт-Петербург Почтовый Переулок 5,Standart,1,
264,Санкт-Петербург Профсоюзная Улица 21,Standart,1,
265,Санкт-Петербург Толстого Улица 11,Standart,1,
266,Санкт-Петербург Строительная Улица 11,Standart,1,
267,Санкт-Петербург Озерный Переулок 4,Standart,1,
268,Санкт-Петербург Яркая Улица 20,Standart,1,
269,Санкт-Петербург Центральная Улица 10,Standart,1,
270,Санкт-Петербург Гагарина Улица 12,Standart,1,
271,Санкт-Петербург Спортивная Улица 6,Standart,1,
272,Санкт-Петербург Южная Улица 1,Standart,1,
273,Санкт-Петербург Строительная Улица 1,Standart,1,
274,Санкт-Петербург Нагорная Улица 30,Standart,1,
275,Санкт-Петербург Молодежная Улица 3,Standart,1,
276,Санкт-Петербург Комсомольская Улица 23,Standart,1,
277,Санкт-Петербург Первомайская Улица 10,Standart,1,
278,Санкт-Петербург Начальная Переулок 15,Standart,1,
279,Санкт-Петербург Дружбы Улица 11,Standart,1,
280,Санкт-Петербург Молодежная Улица 22,Standart,1,
281,Санкт-Петербург Клубная Улица 35,Standart,1,
282,Санкт-Петербург Угловая Улица 4,Standart,1,
283,Санкт-Петербург Крылова Улица 29,Standart,1,
284,Санкт-Петербург Первомайская Улица 26,Standart,1,
285,Санкт-Петербург Кленовый Переулок 32,Standart,1,
286,Санкт-Петербург Степана Разина Улица 27,Standart,1,
287,Санкт-Петербург Садовая Улица 18,Standart,1,
288,Санкт-Петербург Стрелецкая Улица 17,Standart,1,
289,Санкт-Петербург Лесная Улица 32,Standart,1,
290,Санкт-Петербург Городок Квартал 25,Standart,1,
291,Санкт-Петербург Юбилейная Улица 20,Standart,1,
292,Санкт-Петербург Островского Улица 10,Standart,1,
293,Санкт-Петербург Озерный Переулок 33,Standart,1,
294,Санкт-Петербург Редочная Улица 14,Standart,1,
295,Санкт-Петербург Строителей Улица 6,Standart,1,
296,Санкт-Петербург Майская Улица 30,Standart,1,
297,Санкт-Петербург Красногвардейский Переулок 10,Standart,1,
298,Санкт-Петербург Энергетиков Улица 29,Standart,1,
299,Санкт-Петербург Спортивный проезд Улица 23,Standart,1,
300,Санкт-Петербург Лесной Переулок 9,Standart,1,
301,Санкт-Петербург Котовского Улица 22,Standart,1,
302,Санкт-Петербург Профсоюзная Улица 32,Standart,1,
303,Санкт-Петербург Таежный Переулок 9,Standart,1,
304,Санкт-Петербург Любимежская Улица 12,Standart,1,
305,Санкт-Петербург Белинского Улица 18,Standart,1,
306,Санкт-Петербург Садовая Улица 34,Standart,1,
307,Санкт-Петербург Железнодорожная Улица 22,Standart,1,
308,Санкт-Петербург Новомосковская Улица 21,Standart,1,
309,Санкт-Петербург Заречная Улица 24,Standart,1,
310,Санкт-Петербург Широкая Улица 4,Standart,1,
311,Санкт-Петербург Лесная Улица 24,Standart,1,
312,Санкт-Петербург Кавказская Улица 14,Standart,1,
313,Санкт-Петербург Ломоносова Улица 34,Standart,1,
314,Санкт-Петербург В.Терешковой Улица 33,Standart,1,
315,Санкт-Петербург Больничная Улица 29,Standart,1,
316,Санкт-Петербург ДНТ Жемчуг Спортивный Переулок 35,Standart,1,
317,Санкт-Петербург Волгоградская Улица 19,Standart,1,
318,Санкт-Петербург Лесная Улица 3,Standart,1,
319,Санкт-Петербург Дачный Переулок 17,Standart,1,
320,Санкт-Петербург Тейфука Улица 32,Standart,1,
321,Санкт-Петербург Солнечная Улица 26,Standart,1,
322,Санкт-Петербург 70 лет Октября Улица 6,Standart,1,
323,Санкт-Петербург Лесхозный Переулок 13,Standart,1,
324,Санкт-Петербург Речная Улица 27,Standart,1,
325,Санкт-Петербург Лесная Улица 11,Standart,1,
326,Санкт-Петербург Новая Улица 21,Standart,1,
327,Санкт-Петербург Северная Улица 14,Standart,1,
328,Санкт-Петербург Мамонова Улица 22,Standart,1,
329,Санкт-Петербург Российская Улица 20,Standart,1,
330,Санкт-Петербург Новая Улица 28,Standart,1,
331,Санкт-Петербург Заречная Улица 35,Standart,1,
332,Санкт-Петербург Коммунальная Улица 14,Standart,1,
333,Санкт-Петербург Ягодная Улица 27,Standart,1,
334,Санкт-Петербург Садовая Улица 1,Standart,1,
335,Санкт-Петербург Комаринская Улица 4,Standart,1,
336,Санкт-Петербург Заречная Улица 8,Standart,1,
337,Санкт-Петербург Центральная Улица 33,Standart,1,
338,Санкт-Петербург Дачная Улица 6,Standart,1,
339,Санкт-Петербург Родниковый Переулок 12,Standart,1,
340,Санкт-Петербург Восточная Улица 32,Standart,1,
341,Санкт-Петербург Кирова Улица 27,Standart,1,
342,Санкт-Петербург Молодежная Улица 14,Standart,1,
343,Санкт-Петербург Майский Переулок 27,Standart,1,
344,Санкт-Петербург Ровная Улица 5,Standart,1,
345,Санкт-Петербург Сельский Переулок 2,Standart,1,
346,Санкт-Петербург Садовая Улица 24,Standart,1,
347,Санкт-Петербург Школьный Переулок 25,Standart,1,
348,Санкт-Петербург Сагарга Улица 27,Standart,1,
349,Санкт-Петербург Парковая 1-я Улица 10,Standart,1,
350,Санкт-Петербург Лавренева Улица 13,Standart,1,
351,Санкт-Петербург Фабричная Улица 27,Standart,1,
352,Санкт-Петербург Новая Улица 19,Standart,1,
353,Санкт-Петербург Южная Улица 30,Standart,1,
354,Санкт-Петербург Сагарга Улица 20,Standart,1,
355,Санкт-Петербург Садовая Улица 32,Standart,1,
356,Санкт-Петербург Центральная Улица 28,Standart,1,
357,Санкт-Петербург Луговая Улица 9,Standart,1,
358,Санкт-Петербург Садовая Улица 27,Standart,1,
359,Санкт-Петербург Закаменская Улица 29,Standart,1,
360,Санкт-Петербург Промышленная Улица 21,Standart,1,
361,Санкт-Петербург Советская Улица 11,Standart,1,
362,Санкт-Петербург Энергетиков Улица 27,Standart,1,
363,Санкт-Петербург Труда Улица 22,Standart,1,
364,Санкт-Петербург Прудовая Улица 2,Standart,1,
365,Санкт-Петербург Кузнечная Улица 20,Standart,1,
366,Санкт-Петербург Деревенский Переулок 13,Standart,1,
367,Санкт-Петербург Пушкина Переулок 3,Standart,1,
368,Санкт-Петербург Солнечная Улица 16,Standart,1,
369,Санкт-Петербург Дачная Улица 23,Standart,1,
370,Санкт-Петербург Тихая Улица 1,Standart,1,
371,Санкт-Петербург Трудовая Улица 18,Standart,1,
372,Санкт-Петербург Победы Улица 5,Standart,1,
373,Санкт-Петербург Таежная Улица 23,Standart,1,
374,Санкт-Петербург Пригородное хозяйство 2 Улица 10,Standart,1,
375,Санкт-Петербург Пионерская Улица 25,Standart,1,
376,Санкт-Петербург Луговая Улица 29,Standart,1,
377,Санкт-Петербург Цветочная Улица 33,Standart,1,
378,Санкт-Петербург Госпитальный Переулок 24,Standart,1,
379,Санкт-Петербург Первомайская Улица 3,Standart,1,
380,Санкт-Петербург Ангасерок Улица 16,Standart,1,
381,Санкт-Петербург Уютная Улица 5,Standart,1,
382,Санкт-Петербург Юбилейная Улица 34,Standart,1,
383,Санкт-Петербург Дивная Улица 13,Standart,1,
384,Санкт-Петербург Заречная Улица 12,Standart,1,
385,Санкт-Петербург Южная Улица 4,Standart,1,
386,Санкт-Петербург Наумовская Улица 24,Standart,1,
387,Санкт-Петербург Обручева Переулок 20,Standart,1,
388,Санкт-Петербург Степной Переулок 31,Standart,1,
389,Санкт-Петербург Лавренева Улица 9,Standart,1,
390,Санкт-Петербург Береговая Улица 18,Standart,1,
391,Санкт-Петербург Трудовой Переулок 5,Standart,1,
392,Санкт-Петербург Рабочая Улица 26,Standart,1,
393,Санкт-Петербург Заозерная Улица 7,Standart,1,
394,Санкт-Петербург Лесная Улица 5,Standart,1,
395,Санкт-Петербург Мира Улица 15,Standart,1,
396,Санкт-Петербург Лавренева Улица 21,Standart,1,
397,Санкт-Петербург Коллективная Улица 2,Standart,1,
398,Санкт-Петербург Лесная Улица 2,Standart,1,
399,Санкт-Петербург Круглая Улица 17,Standart,1,
400,Санкт-Петербург Кирова Переулок 21,Standart,1,
401,Санкт-Петербург Лесная Улица 22,Standart,1,
402,Санкт-Петербург Лесная Улица 8,Standart,1,
403,Санкт-Петербург Пушкинская Улица 33,Standart,1,
404,Санкт-Петербург Липовая Улица 22,Standart,1,
405,Санкт-Петербург Торопецкая Улица 30,Standart,1,
406,Санкт-Петербург Набережная Улица 24,Standart,1,
407,Санкт-Петербург Школьная Улица 32,Standart,1,
408,Санкт-Петербург Набережная Улица 26,Standart,1,
409,Санкт-Петербург Кирпичный завод Улица 33,Standart,1,
410,Санкт-Петербург Гагарина Улица 13,Standart,1,
411,Санкт-Петербург Кирова Улица 9,Standart,1,
412,Санкт-Петербург Новый Переулок 3,Standart,1,
413,Санкт-Петербург ДНП Большое Петровское Дачное неком-е партнерство 3,Standart,1,
414,Санкт-Петербург Полевая Улица 17,Standart,1,
415,Санкт-Петербург Заозерная Улица 3,Standart,1,
416,Санкт-Петербург Березовая Роща Поселок 33,Standart,1,
417,Санкт-Петербург Почтовая Улица 19,Standart,1,
418,Санкт-Петербург Колхозный Переулок 29,Standart,1,
419,Санкт-Петербург Юбилейная Улица 9,Standart,1,
420,Санкт-Петербург Кутузова Улица 16,Standart,1,
421,Санкт-Петербург Луговая Улица 9,Standart,1,
422,Санкт-Петербург Весенний Переулок 3,Standart,1,
423,Санкт-Петербург 2-й Микрорайон 28,Standart,1,
424,Санкт-Петербург Октябрьская Улица 8,Standart,1,
425,Санкт-Петербург Большевиков Площадь 27,Standart,1,
426,Санкт-Петербург Дорожный Переулок 18,Standart,1,
427,Санкт-Петербург Летний Переулок 32,Standart,1,
428,Санкт-Петербург 60 лет Победы Улица 21,Standart,1,
429,Санкт-Петербург Молодежный Переулок 29,Standart,1,
430,Санкт-Петербург Восточный Переулок 10,Standart,1,
431,Санкт-Петербург Набережная Улица 33,Standart,1,
432,Санкт-Петербург Южный Переулок 14,Standart,1,
433,Санкт-Петербург Молодежная Улица 23,Standart,1,
434,Санкт-Петербург Байчорова Улица 16,Standart,1,
435,Санкт-Петербург Заводская Улица 35,Standart,1,
436,Санкт-Петербург Восточный Переулок 10,Standart,1,
437,Санкт-Петербург Тимирязева Улица 13,Standart,1,
438,Санкт-Петербург Сиреневый Проулок 9,Standart,1,
439,Санкт-Петербург Зеленая Улица 6,Standart,1,
440,Санкт-Петербург Тихий Переулок 10,Standart,1,
441,Санкт-Петербург Дорожников Переулок 5,Standart,1,
442,Санкт-Петербург Заречная Улица 30,Standart,1,
443,Санкт-Петербург Колхозная Улица 2,Standart,1,
444,Санкт-Петербург Славянская Улица 16,Standart,1,
445,Санкт-Петербург Советский Переулок 35,Standart,1,
446,Санкт-Петербург Строителей Улица 32,Standart,1,
447,Санкт-Петербург Зеленый Переулок 30,Standart,1,
448,Санкт-Петербург Трактовая Улица 28,Standart,1,
449,Санкт-Петербург Речной Переулок 27,Standart,1,
450,Санкт-Петербург Большая Зеленая Улица 14,Standart,1,
451,Санкт-Петербург 1-я линия Улица 17,Standart,1,
452,Санкт-Петербург Сосновая Улица 32,Standart,1,
453,Санкт-Петербург Солнечный Переулок 13,Standart,1,
454,Санкт-Петербург Даниила Чёрного Улица 2,Standart,1,
455,Санкт-Петербург Молодёжная Улица 28,Standart,1,
456,Санкт-Петербург Тракторная Улица 26,Standart,1,
457,Санкт-Петербург 2-й Микрорайон 19,Standart,1,
458,Санкт-Петербург Волгоградская Улица 4,Standart,1,
459,Санкт-Петербург Алконовская Улица 23,Standart,1,
460,Санкт-Петербург Садовая Улица 8,Standart,1,
461,Санкт-Петербург Заводской Переулок 17,Standart,1,
462,Санкт-Петербург Солнечная Улица 23,Standart,1,
463,Санкт-Петербург Вишневый Переулок 23,Standart,1,
464,Санкт-Петербург Ковдская Улица 30,Standart,1,
465,Санкт-Петербург Колхозный Переулок 8,Standart,1,
466,Санкт-Петербург Заки Валиди Улица 10,Standart,1,
467,Санкт-Петербург Заречная Улица 20,Standart,1,
468,Санкт-Петербург Зеленая Улица 24,Standart,1,
469,Санкт-Петербург Редочная Улица 6,Standart,1,
470,Санкт-Петербург Школьный Переулок 5,Standart,1,
471,Санкт-Петербург Прохладная Улица 6,Standart,1,
472,Санкт-Петербург Новая Улица 24,Standart,1,
473,Санкт-Петербург Таежная Улица 14,Standart,1,
474,Санкт-Петербург Окская Улица 15,Standart,1,
475,Санкт-Петербург Правонабережная Улица 23,Standart,1,
476,Санкт-Петербург Выселковая Улица 6,Standart,1,
477,Санкт-Петербург Кооперативный Переулок 7,Standart,1,
478,Санкт-Петербург Западная Улица 10,Standart,1,
479,Санкт-Петербург Торговый Переулок 31,Standart,1,
480,Санкт-Петербург 1-я линия Улица 12,Standart,1,
481,Санкт-Петербург Западный Проезд 3,Standart,1,
482,Санкт-Петербург Луговая Улица 14,Standart,1,
483,Санкт-Петербург Песчаная Улица 2,Standart,1,
484,Санкт-Петербург Л.Толстого Переулок 11,Standart,1,
485,Санкт-Петербург Гвардейская Улица 25,Standart,1,
486,Санкт-Петербург Трактовая Улица 24,Standart,1,
487,Санкт-Петербург Крылова Переулок 26,Standart,1,
488,Санкт-Петербург Гуськова Улица 6,Standart,1,
489,Санкт-Петербург Геодезическая Улица 24,Standart,1,
490,Санкт-Петербург Школьная Улица 32,Standart,1,
491,Санкт-Петербург Малая Овражная Улица 4,Standart,1,
492,Санкт-Петербург Запрудная Улица 1,Standart,1,
493,Санкт-Петербург Дачная Улица 33,Standart,1,
494,Санкт-Петербург Лесная Улица 31,Standart,1,
495,Санкт-Петербург Родниковый Переулок 5,Standart,1,
496,Санкт-Петербург 2-я Октябрьская Улица 31,Standart,1,
497,Санкт-Петербург Октябрьская Улица 21,Standart,1,
498,Санкт-Петербург Овражный Переулок 11,Standart,1,
499,Санкт-Петербург Таежный Переулок 3,Standart,1,
500,Санкт-Петербург 1 Мая 3-й Переулок 34,Standart,1,
501,Санкт-Петербург Дальневосточная Улица 16,Standart,1,
502,Санкт-Петербург Пятницкий Переулок 15,Standart,1,
503,Санкт-Петербург 4-й Медицинский Переулок 25,Standart,1,
504,Санкт-Петербург Чулымская Улица 14,Standart,1,
505,Санкт-Петербург Короткий Переулок 11,Standart,1,
506,Санкт-Петербург Набережная Улица 15,Standart,1,
507,Санкт-Петербург Центральная Улица 3,Standart,1,
508,Санкт-Петербург Рабочая Улица 8,Standart,1,
509,Санкт-Петербург Красной Горки Переулок 8,Standart,1,
510,Санкт-Петербург Березовая Роща 17,Standart,1,
511,Санкт-Петербург Прогонная Улица 31,Standart,1,
512,Санкт-Петербург Татьяновская Улица 24,Standart,1,
513,Санкт-Петербург Овражная Улица 5,Standart,1,
514,Санкт-Петербург Гранковская 6-я Улица 27,Standart,1,
515,Санкт-Петербург Кирова Улица 27,Standart,1,
516,Санкт-Петербург Счастливая Улица 3,Standart,1,
517,Санкт-Петербург РНИИ Электронстандарт Садовое неком-е товарищество 6,Standart,1,
518,Санкт-Петербург Волжская Улица 23,Standart,1,
519,Санкт-Петербург Хаваджи Магомед-Мирзоева Улица 16,Standart,1,
520,Санкт-Петербург Первомайская Улица 15,Standart,1,
521,Санкт-Петербург Садовая Улица 35,Standart,1,
522,Санкт-Петербург Северный Переулок 16,Standart,1,
523,Санкт-Петербург Начальная Переулок 29,Standart,1,
524,Санкт-Петербург Хвойная Улица 4,Standart,1,
525,Санкт-Петербург Лесная Улица 26,Standart,1,
526,Санкт-Петербург Степной Переулок 16,Standart,1,
527,Санкт-Петербург Кавказская Улица 33,Standart,1,
528,Санкт-Петербург Энергетиков Улица 35,Standart,1,
529,Санкт-Петербург Александровский Переулок 2,Standart,1,
530,Санкт-Петербург Лесная Улица 4,Standart,1,
531,Санкт-Петербург Садовая Улица 28,Standart,1,
532,Санкт-Петербург Лесная Улица 33,Standart,1,
533,Санкт-Петербург Зареченская Улица 11,Standart,1,
534,Санкт-Петербург 6-я Улица 8,Standart,1,
535,Санкт-Петербург Большевистская Улица 21,Standart,1,
536,Санкт-Петербург Вишневая Улица 23,Standart,1,
537,Санкт-Петербург Школьная Улица 31,Standart,1,
538,Санкт-Петербург Набережная Улица 14,Standart,1,
539,Санкт-Петербург Шадринская Улица 21,Standart,1,
540,Санкт-Петербург Надежды Улица 8,Standart,1,
541,Санкт-Петербург Лесная Улица 8,Standart,1,
542,Санкт-Петербург Заречная Улица 23,Standart,1,
543,Санкт-Петербург Майская Улица 17,Standart,1,
544,Санкт-Петербург Сиреневый проезд Улица 29,Standart,1,
545,Санкт-Петербург Молодежная Улица 20,Standart,1,
546,Санкт-Петербург Кузнечная Улица 31,Standart,1,
547,Санкт-Петербург Советская Улица 12,Standart,1,
548,Санкт-Петербург 2-я Линия Улица 25,Standart,1,
549,Санкт-Петербург Молодежная Улица 15,Standart,1,
550,Санкт-Петербург Свободная Улица 35,Standart,1,
551,Санкт-Петербург Котовского Улица 6,Standart,1,
552,Санкт-Петербург Садовый Переулок 9,Standart,1,
553,Санкт-Петербург Лесная Улица 30,Standart,1,
554,Санкт-Петербург Спортивная Улица 1,Standart,1,
555,Санкт-Петербург Первомайская Улица 26,Standart,1,
556,Санкт-Петербург Калиниский Переулок 26,Standart,1,
557,Санкт-Петербург 1-й Полевой Тупик 6,Standart,1,
558,Санкт-Петербург Набережная Улица 26,Standart,1,
559,Санкт-Петербург Вишневая Улица 27,Standart,1,
560,Санкт-Петербург Кобяйская Улица 13,Standart,1,
561,Санкт-Петербург Школьная Улица 12,Standart,1,
562,Санкт-Петербург Больничный Городок 33,Standart,1,
563,Санкт-Петербург Азина Улица 7,Standart,1,
564,Санкт-Петербург Н.Вокуева Улица 20,Standart,1,
565,Санкт-Петербург 70 лет Октября Улица 33,Standart,1,
566,Санкт-Петербург Советская Улица 20,Standart,1,
567,Санкт-Петербург Южный Переулок 14,Standart,1,
568,Санкт-Петербург 3-й Кооперативный Переулок 19,Standart,1,
569,Санкт-Петербург Лидерская Улица 16,Standart,1,
570,Санкт-Петербург Юбилейная Улица 35,Standart,1,
571,Санкт-Петербург Соколинская Улица 4,Standart,1,
572,Санкт-Петербург Новая Улица 29,Standart,1,
573,Санкт-Петербург Садовая Улица 30,Standart,1,
574,Санкт-Петербург Кировский Переулок 29,Standart,1,
575,Санкт-Петербург Молодежная Улица 7,Standart,1,
576,Санкт-Петербург Центральная Площадь 12,Standart,1,
577,Санкт-Петербург Коллективная Улица 5,Standart,1,
578,Санкт-Петербург Советский Переулок 2,Standart,1,
579,Санкт-Петербург Лесная Улица 6,Standart,1,
580,Санкт-Петербург Свободы Улица 4,Standart,1,
581,Санкт-Петербург Олимпийская Улица 9,Standart,1,
582,Санкт-Петербург Механический Переулок 1,Standart,1,
583,Санкт-Петербург Комарова Улица 10,Standart,1,
584,Санкт-Петербург Снежная Улица 9,Standart,1,
585,Санкт-Петербург Тракторная Улица 26,Standart,1,
586,Санкт-Петербург Школьная Улица 32,Standart,1,
587,Санкт-Петербург Садовая Улица 29,Standart,1,
588,Санкт-Петербург Обручева Переулок 13,Standart,1,
589,Санкт-Петербург Ровная Улица 23,Standart,1,
590,Санкт-Петербург Лесная Улица 4,Standart,1,
591,Санкт-Петербург Заводская Улица 7,Standart,1,
592,Санкт-Петербург Терещенко Улица 22,Standart,1,
593,Санкт-Петербург Угольная Улица 30,Standart,1,
594,Санкт-Петербург Питео Улица 9,Standart,1,
595,Санкт-Петербург Проселочная Улица 15,Standart,1,
596,Санкт-Петербург Набережная Улица 29,Standart,1,
597,Санкт-Петербург Школьный Переулок 14,Standart,1,
598,Санкт-Петербург 3-й Суркова Переулок 5,Standart,1,
599,Санкт-Петербург Пионерская Улица 25,Standart,1,
600,Санкт-Петербург Мелиоратор Садовое неком-е товарищество 2,Standart,1,
601,Санкт-Петербург Подгорная 1-я Улица 30,Standart,1,
602,Санкт-Петербург Ягодная Улица 34,Standart,1,
603,Санкт-Петербург Бульварное Кольцо Улица 10,Standart,1,
604,Санкт-Петербург 40 лет Победы Улица 6,Standart,1,
605,Санкт-Петербург Новая Улица 18,Standart,1,
606,Санкт-Петербург Аллейный Переулок 2,Standart,1,
607,Санкт-Петербург Профсоюзов Улица 17,Standart,1,
608,Санкт-Петербург Спортивная Улица 13,Standart,1,
609,Санкт-Петербург Трактовая Улица 8,Standart,1,
610,Санкт-Петербург Мичурина Улица 17,Standart,1,
611,Санкт-Петербург Дружбы Улица 5,Standart,1,
612,Санкт-Петербург Северная Улица 24,Standart,1,
613,Санкт-Петербург Центральный Переулок 22,Standart,1,
614,Санкт-Петербург п/л Огонек Улица 31,Standart,1,
615,Санкт-Петербург Красильникова Переулок 7,Standart,1,
616,Санкт-Петербург Энтузиастов Улица 14,Standart,1,
617,Санкт-Петербург Ягодная Улица 2,Standart,1,
618,Санкт-Петербург Садовый 1-й Переулок 23,Standart,1,
619,Санкт-Петербург Береговая Улица 25,Standart,1,
620,Санкт-Петербург Дом лесхоза Строение 8,Standart,1,
621,Санкт-Петербург Ленина 2-й Переулок 19,Standart,1,
622,Санкт-Петербург Сквозной Переулок 20,Standart,1,
623,Санкт-Петербург Станичный Переулок 6,Standart,1,
624,Санкт-Петербург Дачная Улица 2,Standart,1,
625,Санкт-Петербург Дорожная Улица 12,Standart,1,
626,Санкт-Петербург Березка Улица 11,Standart,1,
627,Санкт-Петербург Таежный Переулок 15,Standart,1,
628,Санкт-Петербург Придорожная Улица 31,Standart,1,
629,Санкт-Петербург Банзарова Улица 27,Standart,1,
630,Санкт-Петербург Заводская Улица 9,Standart,1,
631,Санкт-Петербург Соколинская Улица 21,Standart,1,
632,Санкт-Петербург Заречная Улица 12,Standart,1,
633,Санкт-Петербург Солнечная Улица 22,Standart,1,
634,Санкт-Петербург Мира Улица 28,Standart,1,
635,Санкт-Петербург Зеленая Улица 8,Standart,1,
636,Санкт-Петербург Рыбака Улица 29,Standart,1,
637,Санкт-Петербург Дорожный Переулок 24,Standart,1,
638,Санкт-Петербург Молодежная Улица 5,Standart,1,
639,Санкт-Петербург Железнодорожная Улица 16,Standart,1,
640,Санкт-Петербург Полевая Улица 33,Standart,1,
641,Санкт-Петербург Молодежная Улица 20,Standart,1,
642,Санкт-Петербург Песчанная Улица 7,Standart,1,
643,Санкт-Петербург Набережная Улица 34,Standart,1,
644,Санкт-Петербург Заречная Улица 19,Standart,1,
645,Санкт-Петербург Садовая Улица 22,Standart,1,
646,Санкт-Петербург Пирогова Улица 34,Standart,1,
647,Санкт-Петербург Новый Переулок 20,Standart,1,
648,Санкт-Петербург Луговая Улица 22,Standart,1,
649,Санкт-Петербург СНТ Венеция Садовое неком-е товарищество 33,Standart,1,
650,Санкт-Петербург Лесная Улица 17,Standart,1,
651,Санкт-Петербург Дачный Переулок 24,Standart,1,
652,Санкт-Петербург Чеховский Переулок 16,Standart,1,
653,Санкт-Петербург Родниковая Улица 10,Standart,1,
654,Санкт-Петербург Промышленная Улица 8,Standart,1,
655,Санкт-Петербург Кирова Переулок 18,Standart,1,
656,Санкт-Петербург Пахомова Улица 16,Standart,1,
657,Санкт-Петербург СНТ Венеция Садовое неком-е товарищество 12,Standart,1,
658,Санкт-Петербург Рыбака Улица 28,Standart,1,
659,Санкт-Петербург Новая Улица 5,Standart,1,
660,Санкт-Петербург Спортивная Улица 12,Standart,1,
661,Санкт-Петербург Новая Улица 19,Standart,1,
662,Санкт-Петербург Железнодорожный Переулок 23,Standart,1,
663,Санкт-Петербург Колхозная Улица 6,Standart,1,
664,Санкт-Петербург 60 лет Победы Улица 30,Standart,1,
665,Санкт-Петербург Западная Улица 32,Standart,1,
666,Санкт-Петербург Первомайская Улица 10,Standart,1,
667,Санкт-Петербург Шоферская Улица 20,Standart,1,
668,Санкт-Петербург Надежда СНТ Западная Улица 5,Standart,1,
669,Санкт-Петербург Мира Улица 35,Standart,1,
670,Санкт-Петербург Проезжий Переулок 23,Standart,1,
671,Санкт-Петербург Дальневосточная Улица 12,Standart,1,
672,Санкт-Петербург Дружбы Улица 25,Standart,1,
673,Санкт-Петербург Революции Переулок 25,Standart,1,
674,Санкт-Петербург Николая Филиппова Улица 8,Standart,1,
675,Санкт-Петербург Фрунзе Улица 5,Standart,1,
676,Санкт-Петербург Школьная Улица 6,Standart,1,
677,Санкт-Петербург Цветочная Улица 13,Standart,1,
678,Санкт-Петербург Федосеева Улица 8,Standart,1,
679,Санкт-Петербург Комсомольская Улица 2,Standart,1,
680,Санкт-Петербург Тихая Улица 3,Standart,1,
681,Санкт-Петербург Береговая Улица 27,Standart,1,
682,Санкт-Петербург Акулово Станция 4,Standart,1,
683,Санкт-Петербург 6 Квартал 24,Standart,1,
684,Санкт-Петербург Адама Скрябина Улица 11,Standart,1,
685,Санкт-Петербург Верхний Шанай Местечко 3,Standart,1,
686,Санкт-Петербург Школьная Улица 30,Standart,1,
687,Санкт-Петербург Лесная Улица 21,Standart,1,
688,Санкт-Петербург Мира Улица 14,Standart,1,
689,Санкт-Петербург Балтийский Переулок 3,Standart,1,
690,Санкт-Петербург Нижегородская Улица 19,Standart,1,
691,Санкт-Петербург 1-й Переулок 15,Standart,1,
692,Санкт-Петербург Московская Улица 14,Standart,1,
693,Санкт-Петербург Мира Улица 4,Standart,1,
694,Санкт-Петербург Школьная Улица 21,Standart,1,
695,Санкт-Петербург Садовая Улица 17,Standart,1,
696,Санкт-Петербург Бригадира Гаврила Улица 16,Standart,1,
697,Санкт-Петербург Дачная Улица 9,Standart,1,
698,Санкт-Петербург Овражная Улица 27,Standart,1,
699,Санкт-Петербург Майская Улица 4,Standart,1,
700,Санкт-Петербург Герцена Улица 12,Standart,1,
701,Санкт-Петербург Песчаная Улица 4,Standart,1,
702,Санкт-Петербург Линейная Улица 22,Standart,1,
703,Санкт-Петербург Набережная Улица 26,Standart,1,
704,Санкт-Петербург Полевая Улица 6,Standart,1,
705,Санкт-Петербург Детский Переулок 17,Standart,1,
706,Санкт-Петербург Набережная Улица 13,Standart,1,
707,Санкт-Петербург Набережный Переулок 12,Standart,1,
708,Санкт-Петербург Песочная Улица 2,Standart,1,
709,Санкт-Петербург Грез Улица 6,Standart,1,
710,Санкт-Петербург Пионерский Переулок 34,Standart,1,
711,Санкт-Петербург Кооперативный Переулок 9,Standart,1,
712,Санкт-Петербург Садовая Улица 25,Standart,1,
713,Санкт-Петербург Совхозная Улица 2,Standart,1,
714,Санкт-Петербург Строительная Улица 9,Standart,1,
715,Санкт-Петербург Орлово-Розово Деревня 21,Standart,1,
716,Санкт-Петербург Береговая Улица 15,Standart,1,
717,Санкт-Петербург Песочная Улица 13,Standart,1,
718,Санкт-Петербург Садовая Улица 35,Standart,1,
719,Санкт-Петербург Салавата Юлаева Улица 6,Standart,1,
720,Санкт-Петербург Луговая Улица 15,Standart,1,
721,Санкт-Петербург Прудная Улица 7,Standart,1,
722,Санкт-Петербург Родниковый Переулок 19,Standart,1,
723,Санкт-Петербург Смирнова Улица 15,Standart,1,
724,Санкт-Петербург Пионерская Улица 30,Standart,1,
725,Санкт-Петербург Новая Улица 14,Standart,1,
726,Санкт-Петербург Зеленый Переулок 7,Standart,1,
727,Санкт-Петербург Лесная Улица 5,Standart,1,
728,Санкт-Петербург Пермская Улица 27,Standart,1,
729,Санкт-Петербург Зеленая Улица 13,Standart,1,
730,Санкт-Петербург Центральная Улица 18,Standart,1,
731,Санкт-Петербург Дачная Улица 11,Standart,1,
732,Санкт-Петербург Новый Переулок 29,Standart,1,
733,Санкт-Петербург Центральная Улица 21,Standart,1,
734,Санкт-Петербург Дачная Улица 34,Standart,1,
735,Санкт-Петербург Селляхская Улица 32,Standart,1,
736,Санкт-Петербург Лесная Улица 14,Standart,1,
737,Санкт-Петербург Черемуховая Улица 15,Standart,1,
738,Санкт-Петербург Терещенко Улица 3,Standart,1,
739,Санкт-Петербург Тукая Улица 1,Standart,1,
740,Санкт-Петербург Промышленная Улица 21,Standart,1,
741,Санкт-Петербург Сельпо Переулок 25,Standart,1,
742,Санкт-Петербург Новая Улица 25,Standart,1,
743,Санкт-Петербург Поддубновская Улица 23,Standart,1,
744,Санкт-Петербург Большешуберская Улица 9,Standart,1,
745,Санкт-Петербург Комаринская Улица 13,Standart,1,
746,Санкт-Петербург Радченко Улица 25,Standart,1,
747,Санкт-Петербург Октябрьская Улица 6,Standart,1,
748,Санкт-Петербург Береговая Улица 35,Standart,1,
749,Санкт-Петербург Кооперативная Улица 29,Standart,1,
750,Санкт-Петербург Родниковый Переулок 21,Standart,1,
751,Санкт-Петербург Луговой Переулок 26,Standart,1,
752,Санкт-Петербург Лесная Улица 31,Standart,1,
753,Санкт-Петербург Привокзальная Улица 18,Standart,1,
754,Санкт-Петербург Доенко Переулок 26,Standart,1,
755,Санкт-Петербург Байчорова Улица 15,Standart,1,
756,Санкт-Петербург Школьная Улица 10,Standart,1,
757,Санкт-Петербург Садовая 1 - линия Улица 22,Standart,1,
758,Санкт-Петербург Пограничная Улица 34,Standart,1,
759,Санкт-Петербург Лесная Улица 5,Standart,1,
760,Санкт-Петербург Мира Улица 19,Standart,1,
761,Санкт-Петербург Лавренева Улица 13,Standart,1,
762,Санкт-Петербург 1-й Комарова Переулок 14,Standart,1,
763,Санкт-Петербург Новая Улица 1,Standart,1,
764,Санкт-Петербург Даниила Чёрного Улица 23,Standart,1,
765,Санкт-Петербург Высоковольтная Улица 22,Standart,1,
766,Санкт-Петербург 60 лет Октября Улица 19,Standart,1,
767,Санкт-Петербург Нагорный Переулок 32,Standart,1,
768,Санкт-Петербург Детский Переулок 17,Standart,1,
769,Санкт-Петербург Мусы Гареева Улица 3,Standart,1,
770,Санкт-Петербург Знаменский Переулок 15,Standart,1,
771,Санкт-Петербург Ленинская Улица 10,Standart,1,
772,Санкт-Петербург Лесная Улица 12,Standart,1,
773,Санкт-Петербург Смирнова Улица 20,Standart,1,
774,Санкт-Петербург Гагарина Улица 6,Standart,1,
775,Санкт-Петербург Новый Переулок 7,Standart,1,
776,Санкт-Петербург ПТФ Квартал 31,Standart,1,
777,Санкт-Петербург Джалгинская Улица 24,Standart,1,
778,Санкт-Петербург Понаморева Улица 25,Standart,1,
779,Санкт-Петербург Алконовская Улица 27,Standart,1,
780,Санкт-Петербург Бештаугорская Улица 29,Standart,1,
781,Санкт-Петербург Раздольная Улица 25,Standart,1,
782,Санкт-Петербург Речная Улица 22,Standart,1,
783,Санкт-Петербург Зелёная Улица 22,Standart,1,
784,Санкт-Петербург Заречная Улица 34,Standart,1,
785,Санкт-Петербург Луговая Улица 23,Standart,1,
786,Санкт-Петербург Полевая Улица 16,Standart,1,
787,Санкт-Петербург Сосновая Улица 35,Standart,1,
788,Санкт-Петербург Черемуховая Улица 22,Standart,1,
789,Санкт-Петербург Лесная Улица 22,Standart,1,
790,Санкт-Петербург Софьинская Улица 21,Standart,1,
791,Санкт-Петербург Клубная Улица 14,Standart,1,
792,Санкт-Петербург Современников Улица 3,Standart,1,
793,Санкт-Петербург 2-й Южный проезд Улица 2,Standart,1,
794,Санкт-Петербург Михайловская Улица 21,Standart,1,
795,Санкт-Петербург Саянская Улица 16,Standart,1,
796,Санкт-Петербург Трактовая Улица 10,Standart,1,
797,Санкт-Петербург Мира Улица 24,Standart,1,
798,Санкт-Петербург Сельскохозяйственная зона 9,Standart,1,
799,Санкт-Петербург Веселая Долина Улица 13,Standart,1,
800,Санкт-Петербург Социализма Улица 9,Standart,1,
801,Санкт-Петербург Совмена 2-й Переулок 4,Standart,1,
802,Санкт-Петербург Проселочная Улица 8,Standart,1,
803,Санкт-Петербург Бештаугорская Улица 22,Standart,1,
804,Санкт-Петербург Афанасьева Улица 23,Standart,1,
805,Санкт-Петербург Доллунская Улица 26,Standart,1,
806,Санкт-Петербург Луговой Микрорайон 29,Standart,1,
807,Санкт-Петербург Спортивная Улица 10,Standart,1,
808,Санкт-Петербург Южный Квартал 20,Standart,1,
809,Санкт-Петербург Новый Переулок 23,Standart,1,
810,Санкт-Петербург Счастливая Улица 18,Standart,1,
811,Санкт-Петербург Юбилейная Улица 24,Standart,1,
812,Санкт-Петербург Садовая Улица 2,Standart,1,
813,Санкт-Петербург Степная Улица 13,Standart,1,
814,Санкт-Петербург Озерная Улица 11,Standart,1,
815,Санкт-Петербург Центральная Площадь 18,Standart,1,
816,Санкт-Петербург Мелиораторов Улица 15,Standart,1,
817,Санкт-Петербург Верхняя Улица 22,Standart,1,
818,Санкт-Петербург Надежда СНТ Западная Улица 4,Standart,1,
819,Санкт-Петербург Заречная Улица 28,Standart,1,
820,Санкт-Петербург Тейфука Улица 15,Standart,1,
821,Санкт-Петербург Октябрьская Улица 15,Standart,1,
822,Санкт-Петербург Юбилейная Улица 12,Standart,1,
823,Санкт-Петербург Речной Переулок 8,Standart,1,
824,Санкт-Петербург Достоевского Улица 13,Standart,1,
825,Санкт-Петербург Северная Улица 12,Standart,1,
826,Санкт-Петербург Майская Улица 31,Standart,1,
827,Санкт-Петербург Светлая Улица 30,Standart,1,
828,Санкт-Петербург Школьный Переулок 26,Standart,1,
829,Санкт-Петербург Заводская Улица 5,Standart,1,
830,Санкт-Петербург Дачная Улица 1,Standart,1,
831,Санкт-Петербург Инженерная Улица 26,Standart,1,
832,Санкт-Петербург Осиновая Роща Улица 17,Standart,1,
833,Санкт-Петербург Кузнечная Улица 1,Standart,1,
834,Санкт-Петербург Черемуховая Улица 29,Standart,1,
835,Санкт-Петербург Фестивальный 3-й Проезд 28,Standart,1,
836,Санкт-Петербург Октябрьская Улица 18,Standart,1,
837,Санкт-Петербург Железнодорожная Улица 22,Standart,1,
838,Санкт-Петербург Новая Улица 12,Standart,1,
839,Санкт-Петербург Заречная Улица 25,Standart,1,
840,Санкт-Петербург Ключевой Переулок 11,Standart,1,
841,Санкт-Петербург Поддубновская Улица 3,Standart,1,
842,Санкт-Петербург Шоссейная Улица 29,Standart,1,
843,Санкт-Петербург Новая Улица 15,Standart,1,
844,Санкт-Петербург Рабочая Улица 11,Standart,1,
845,Санкт-Петербург 4-я Радужная Улица 1,Standart,1,
846,Санкт-Петербург Школьная Улица 9,Standart,1,
847,Санкт-Петербург Чапаевский Тупик 30,Standart,1,
848,Санкт-Петербург Лесная Улица 26,Standart,1,
849,Санкт-Петербург Кузнечная Улица 16,Standart,1,
850,Санкт-Петербург Луговая Улица 27,Standart,1,
851,Санкт-Петербург Моховой Переулок 13,Standart,1,
852,Санкт-Петербург Лесная Улица 4,Standart,1,
853,Санкт-Петербург Колыванский Переулок 31,Standart,1,
854,Санкт-Петербург Парковая Улица 35,Standart,1,
855,Санкт-Петербург 1 Мая 3-й Переулок 12,Standart,1,
856,Санкт-Петербург Вольная Улица 27,Standart,1,
857,Санкт-Петербург Кавказская Улица 31,Standart,1,
858,Санкт-Петербург Мира Улица 23,Standart,1,
859,Санкт-Петербург Набережная Улица 25,Standart,1,
860,Санкт-Петербург Зеленый Переулок 13,Standart,1,
861,Санкт-Петербург Терещенко Улица 3,Standart,1,
862,Санкт-Петербург Ондская Улица 18,Standart,1,
863,Санкт-Петербург Восточная Улица 24,Standart,1,
864,Санкт-Петербург Полевая Улица 24,Standart,1,
865,Санкт-Петербург Аносова Улица 29,Standart,1,
866,Санкт-Петербург Клубная Улица 7,Standart,1,
867,Санкт-Петербург Южная Улица 35,Standart,1,
868,Санкт-Петербург Серова Улица 26,Standart,1,
869,Санкт-Петербург Метео Улица 6,Standart,1,
870,Санкт-Петербург Зеленая Улица 14,Standart,1,
871,Санкт-Петербург Железнодорожная Улица 16,Standart,1,
872,Санкт-Петербург Новая Улица 6,Standart,1,
873,Санкт-Петербург Бурлаковой Улица 2,Standart,1,
874,Санкт-Петербург Новая 1 Улица 10,Standart,1,
875,Санкт-Петербург Ульянова Проезд 35,Standart,1,
876,Санкт-Петербург Токмурзина Улица 24,Standart,1,
877,Санкт-Петербург Фельдшерская Улица 11,Standart,1,
878,Санкт-Петербург Матросова Переулок 29,Standart,1,
879,Санкт-Петербург Лагерная Улица 10,Standart,1,
880,Санкт-Петербург Рябиновая 3-я Улица 4,Standart,1,
881,Санкт-Петербург Молодежная Улица 21,Standart,1,
882,Санкт-Петербург Школьный Переулок 28,Standart,1,
883,Санкт-Петербург Луговская Улица 28,Standart,1,
884,Санкт-Петербург Степана Халтурина Улица 24,Standart,1,
885,Санкт-Петербург Яблочный Переулок 17,Standart,1,
886,Санкт-Петербург Орджоникидзе Улица 1,Standart,1,
887,Санкт-Петербург Заречная Улица 31,Standart,1,
888,Санкт-Петербург Российская Улица 19,Standart,1,
889,Санкт-Петербург Лермонтова Улица 3,Standart,1,
890,Санкт-Петербург 1-й Тополиный Переулок 31,Standart,1,
891,Санкт-Петербург Набережная Улица 35,Standart,1,
892,Санкт-Петербург Северная Улица 1,Standart,1,
893,Санкт-Петербург ДНП Большое Петровское Дачное неком-е партнерство 17,Standart,1,
894,Санкт-Петербург Заречная Улица 6,Standart,1,
895,Санкт-Петербург Центральная Улица 7,Standart,1,
896,Санкт-Петербург Чкалова Улица 6,Standart,1,
897,Санкт-Петербург Луговая Улица 5,Standart,1,
898,Санкт-Петербург Кирпичная Слобода Улица 29,Standart,1,
899,Санкт-Петербург Новая Улица 10,Standart,1,
900,Санкт-Петербург Садовая Улица 3,Standart,1,
901,Санкт-Петербург Цветочная Улица 35,Standart,1,
902,Санкт-Петербург Южный 3-й Переулок 19,Standart,1,
903,Санкт-Петербург Энтузиастов Улица 28,Standart,1,
904,Санкт-Петербург Озерный Переулок 3,Standart,1,
905,Санкт-Петербург Прасолова Улица 2,Standart,1,
906,Санкт-Петербург Таежный Переулок 1,Standart,1,
907,Санкт-Петербург Рождественская Улица 12,Standart,1,
908,Санкт-Петербург Тихая Улица 34,Standart,1,
909,Санкт-Петербург Болотная Улица 16,Standart,1,
910,Санкт-Петербург Пионерская Улица 11,Standart,1,
911,Санкт-Петербург Новая Улица 26,Standart,1,
912,Санкт-Петербург 40 лет Победы Улица 24,Standart,1,
913,Санкт-Петербург Озерный берег Улица 20,Standart,1,
914,Санкт-Петербург Лесная Улица 10,Standart,1,
915,Санкт-Петербург Новая Улица 16,Standart,1,
916,Санкт-Петербург Ольховая Улица 16,Standart,1,
917,Санкт-Петербург Школьная Улица 28,Standart,1,
918,Санкт-Петербург Парковая Улица 22,Standart,1,
919,Санкт-Петербург Красноармейская Улица 12,Standart,1,
920,Санкт-Петербург Новый Переулок 25,Standart,1,
921,Санкт-Петербург Ленина Улица 14,Standart,1,
922,Санкт-Петербург Школьный Переулок 16,Standart,1,
923,Санкт-Петербург Школьная Улица 31,Standart,1,
924,Санкт-Петербург Сиреневый проезд Улица 17,Standart,1,
925,Санкт-Петербург Полевая Улица 2,Standart,1,
926,Санкт-Петербург Клубная Улица 32,Standart,1,
927,Санкт-Петербург Лунный Переулок 9,Standart,1,
928,Санкт-Петербург Тупиковая Улица 16,Standart,1,
929,Санкт-Петербург Луговая Улица 24,Standart,1,
930,Санкт-Петербург Профсоюзная Улица 13,Standart,1,
931,Санкт-Петербург Школьная Улица 9,Standart,1,
932,Санкт-Петербург Энергетиков Улица 28,Standart,1,
933,Санкт-Петербург Лесная Улица 20,Standart,1,
934,Санкт-Петербург Кутузова Улица 15,Standart,1,
935,Санкт-Петербург Восточная Улица 28,Standart,1,
936,Санкт-Петербург Победы Улица 22,Standart,1,
937,Санкт-Петербург Центральная Улица 12,Standart,1,
938,Санкт-Петербург Молодежная Улица 12,Standart,1,
939,Санкт-Петербург Рабочая Улица 33,Standart,1,
940,Санкт-Петербург Восточная Улица 33,Standart,1,
941,Санкт-Петербург Пушкина Улица 2,Standart,1,
942,Санкт-Петербург Больничный Переулок 13,Standart,1,
943,Санкт-Петербург Школьная Улица 2,Standart,1,
944,Санкт-Петербург Высокая Улица 11,Standart,1,
945,Санкт-Петербург 70 лет Октября Улица 29,Standart,1,
946,Санкт-Петербург Береговая Улица 33,Standart,1,
947,Санкт-Петербург Спортивный проезд Улица 13,Standart,1,
948,Санкт-Петербург Садовый Переулок 28,Standart,1,
949,Санкт-Петербург Зеленая Улица 33,Standart,1,
950,Санкт-Петербург Степная Улица 14,Standart,1,
951,Санкт-Петербург Речная Улица 7,Standart,1,
952,Санкт-Петербург Живописная Улица 29,Standart,1,
953,Санкт-Петербург Речной Переулок 11,Standart,1,
954,Санкт-Петербург Крайняя Улица 34,Standart,1,
955,Санкт-Петербург Олимпийская Улица 16,Standart,1,
956,Санкт-Петербург Чернолуцкого Улица 8,Standart,1,
957,Санкт-Петербург Демьяна Бедного Улица 27,Standart,1,
958,Санкт-Петербург Победы Улица 15,Standart,1,
959,Санкт-Петербург Крылова Улица 32,Standart,1,
960,Санкт-Петербург Совхозная Улица 16,Standart,1,
961,Санкт-Петербург 1-й Лоцманский Переулок 19,Standart,1,
962,Санкт-Петербург Новоселов Улица 31,Standart,1,
963,Санкт-Петербург Больничная Улица 24,Standart,1,
964,Санкт-Петербург Терешковой Улица 8,Standart,1,
965,Санкт-Петербург Российская Улица 26,Standart,1,
966,Санкт-Петербург Беломорская Улица 9,Standart,1,
967,Санкт-Петербург Южный Переулок 21,Standart,1,
968,Санкт-Петербург 2-й Коммунистов Переулок 14,Standart,1,
969,Санкт-Петербург 6-я Краснорощинская Улица 11,Standart,1,
970,Санкт-Петербург Полевая Улица 10,Standart,1,
971,Санкт-Петербург Школьная Улица 5,Standart,1,
972,Санкт-Петербург Западный Переулок 23,Standart,1,
973,Санкт-Петербург Луговая Улица 12,Standart,1,
974,Санкт-Петербург Октябрьская Улица 13,Standart,1,
975,Санкт-Петербург Мишаевский Переулок 25,Standart,1,
976,Санкт-Петербург Молодежная Улица 26,Standart,1,
977,Санкт-Петербург Северная 2-я Улица 1,Standart,1,
978,Санкт-Петербург Жемчужная Улица 16,Standart,1,
979,Санкт-Петербург Марины Цветаевой Улица 2,Standart,1,
980,Санкт-Петербург Северная Улица 20,Standart,1,
981,Санкт-Петербург Солнечный Переулок 30,Standart,1,
982,Санкт-Петербург Советская Улица 8,Standart,1,
983,Санкт-Петербург Транспортная Улица 13,Standart,1,
984,Санкт-Петербург Шоссейный Переулок 19,Standart,1,
985,Санкт-Петербург Садовая Улица 23,Standart,1,
986,Санкт-Петербург Речная Улица 20,Standart,1,
987,Санкт-Петербург Колхозная Улица 21,Standart,1,
988,Санкт-Петербург Колхозный Переулок 32,Standart,1,
989,Санкт-Петербург Восточная Улица 28,Standart,1,